HYPSO-1                 
1 51053U 22002BX  23053.19243602  .00008887  00000+0  47048-3 0  9996
2 51053  97.4497 120.1446 0006948 294.9737 126.7592 15.15637184 61192
